STARLINK-3107           
1 49171U 21082AT  22332.98518539 -.00000880  00000+0 -65923-4 0  9991
2 49171  69.9992  71.7592 0003397 264.0430  96.0342 14.98335374 67880
STARLINK-3091           
1 49172U 21082AU  22332.59549089 -.00001973  00000+0 -15755-3 0  9994
2 49172  69.9995  52.7498 0003403 272.0157  88.0612 14.98332235 67155
STARLINK-3045           
1 49173U 21082AV  22333.21745626  .00000331  00000+0  35502-4 0  9998
2 49173  70.0013  51.1783 0003535 278.3573  81.7185 14.98325981 67253
STARLINK-3047           
1 49174U 21082AW  22332.78653560  .00004441  00000+0  38293-3 0  9990
2 49174  70.0011  52.4768 0004185 293.2518  66.8200 14.98004189 68354
STARLINK-3087           
1 49175U 21082AX  22332.64317662 -.00001320  00000+0 -10287-3 0  9994
2 49175  70.0014  52.6345 0002577 255.3178 104.7696 14.98327499 67166
STARLINK-3069           
1 49176U 21082AY  22333.16632094  .00002276  00000+0  19843-3 0  9998
2 49176  70.0026  31.3188 0003357 281.9477  78.1305 14.98337151 67733
STARLINK-3103           
1 49177U 21082AZ  22332.45104084 -.00000577  00000+0 -40610-4 0  9994
2 49177  69.9999  33.1263 0002985 271.6317  88.4500 14.98323757 68828
STARLINK-3086           
1 49178U 21082BA  22332.61323928  .00001055  00000+0  96204-4 0  9993
2 49178  70.0015  72.7130 0003622 248.5216 111.5557 14.98329855 67827
STARLINK-3043           
1 49179U 21082BB  22332.90883054 -.00000448  00000+0 -29766-4 0  9993
2 49179  70.0017  31.9711 0002722 290.0122  70.0743 14.98323115 67694
STARLINK-3050           
1 49180U 21082BC  22333.22494189  .00008642  00000+0  73098-3 0  9996
2 49180  70.0025  51.1637 0003284 265.1694  94.9090 14.98340152 68429
STARLINK-3059           
1 49181U 21082BD  22332.46063924 -.00000668  00000+0 -48179-4 0  9996
2 49181  69.9998  73.0913 0003319 272.0961  87.9818 14.98337602 67839
STARLINK-3151           
1 49408U 21104A   22333.35002103 -.00007048  00000+0 -42548-3 0  9996
2 49408  53.2165 199.7048 0004152  24.3340 335.7847 15.08799128 59118
STARLINK-3075           
1 49409U 21104B   22333.03351003  .00000717  00000+0  63151-4 0  9996
2 49409  53.2158 201.1287 0002807  37.5998 322.5190 15.08833248 59065
STARLINK-3147           
1 49410U 21104C   22333.02613668  .00001747  00000+0  12788-3 0  9998
2 49410  53.2152 201.1597 0003190  33.4366 326.6827 15.08843972 59051
STARLINK-3162           
1 49411U 21104D   22332.88721540 -.00000099  00000+0  11932-4 0  9992
2 49411  53.2154 191.7851 0003197  37.1135 323.0078 15.08844094 58091
STARLINK-3144           
1 49412U 21104E   22333.36102050 -.00002417  00000+0 -13378-3 0  9998
2 49412  53.2166 199.6561 0002253  42.3649 317.7517 15.08846221 59127
STARLINK-3157           
1 49413U 21104F   22333.01602250 -.00001243  00000+0 -59956-4 0  9997
2 49413  53.2172 191.2018 0003254  37.4838 322.6380 15.08835655 59208
STARLINK-3146           
1 49414U 21104G   22333.02245570  .00000228  00000+0  32428-4 0  9992
2 49414  53.2169 201.1714 0002893  40.0653 320.0552 15.08847074 59067
STARLINK-3159           
1 49415U 21104H   22333.01234503 -.00000714  00000+0 -26749-4 0  9997
2 49415  53.2160 191.2201 0003107  35.3934 324.7264 15.08838347 59195
STARLINK-3133           
1 49416U 21104J   22333.01510466 -.00000292  00000+0 -24117-6 0  9993
2 49416  53.2170 201.1990 0002698  40.0249 320.0942 15.08832883 59066
STARLINK-3154           
1 49417U 21104K   22333.00866610 -.00000646  00000+0 -22445-4 0  9991
2 49417  53.2155 191.2326 0003373  31.9497 328.1699 15.08840149 59216
STARLINK-3111           
1 49418U 21104L   22332.68021922 -.00001101  00000+0 -51038-4 0  9991
2 49418  53.2170 202.7136 0003208  38.7793 321.3429 15.08840837 57917
STARLINK-3120           
1 49419U 21104M   22333.06661855  .00000024  00000+0  19662-4 0  9998
2 49419  53.2168 200.9835 0002969  36.9160 323.2036 15.08843644 59053
STARLINK-3110           
1 49420U 21104N   22333.07398349 -.00001881  00000+0 -10012-3 0  9999
2 49420  53.2176 200.9436 0002377  34.3440 325.7705 15.08835411 59072
STARLINK-3112           
1 49421U 21104P   22333.32422078 -.00000561  00000+0 -17117-4 0  9993
2 49421  53.2168 199.8256 0002895  32.3052 327.8117 15.08834312 59093
STARLINK-3161           
1 49422U 21104Q   22332.67285742 -.00000172  00000+0  73475-5 0  9993
2 49422  53.2162 202.7523 0002578  38.1144 322.0030 15.08839885 57913
STARLINK-3149           
1 49423U 21104R   22332.58821736 -.00001133  00000+0 -53092-4 0  9994
2 49423  53.2164 203.1316 0002443  43.3559 316.7625 15.08841020 57903
STARLINK-3135           
1 49424U 21104S   22333.06293817 -.00000357  00000+0 -43206-5 0  9996
2 49424  53.2168 200.9954 0002098  47.3471 312.7698 15.08841027 59055
STARLINK-3139           
1 49425U 21104T   22333.04822299 -.00001290  00000+0 -62880-4 0  9992
2 49425  53.2154 201.0632 0003344  32.0188 328.1007 15.08839484 59056
STARLINK-3114           
1 49426U 21104U   22332.65813832 -.00000295  00000+0 -39503-6 0  9994
2 49426  53.2157 202.8150 0002443  35.8856 324.2300 15.08838897 57919
STARLINK-3131           
1 49427U 21104V   22333.11077850 -.00000017  00000+0  17059-4 0  9990
2 49427  53.2157 200.7857 0002880  36.2021 323.9165 15.08845683 59081
STARLINK-3121           
1 49428U 21104W   22332.90198181 -.00000822  00000+0 -33494-4 0  9994
2 49428  53.2170 201.7195 0002881  39.2216 320.8984 15.08832101 59034
STARLINK-3138           
1 49430U 21104Y   22333.10709159  .00000769  00000+0  66390-4 0  9992
2 49430  53.2165 200.8042 0002380  43.4243 316.6936 15.08848537 59066
STARLINK-3153           
1 49431U 21104Z   22333.06758733 -.00002393  00000+0 -13234-3 0  9995
2 49431  53.2178 200.9770 0002399  39.0718 321.0447 15.08829113 59064
STARLINK-3158           
1 49432U 21104AA  22332.87346359 -.00001069  00000+0 -48986-4 0  9993
2 49432  53.2158 191.8321 0003822  32.7994 327.3234 15.08833683 59173
STARLINK-3079           
1 49433U 21104AB  22333.27086870 -.00001037  00000+0 -47020-4 0  9991
2 49433  53.2165 180.0593 0003224  35.8358 324.2850 15.08828110 59389
STARLINK-3134           
1 49434U 21104AC  22333.03717225 -.00001055  00000+0 -48164-4 0  9991
2 49434  53.2156 201.1166 0002857  36.7364 323.3823 15.08854103 59065
STARLINK-3117           
1 49435U 21104AD  22332.81182183 -.00001281  00000+0 -62374-4 0  9996
2 49435  53.2161 182.1142 0002785  45.9240 314.1981 15.08835115 59301
STARLINK-3049           
1 49436U 21104AE  22333.00957760 -.00001775  00000+0 -93367-4 0  9994
2 49436  53.2183 181.2334 0002702  45.6928 314.4285 15.08847224 59324
STARLINK-3130           
1 49437U 21104AF  22333.00222720 -.00001199  00000+0 -57206-4 0  9998
2 49437  53.2157 181.2702 0003028  38.2538 321.8668 15.08831164 59325
STARLINK-3044           
1 49438U 21104AG  22332.86605850 -.00000361  00000+0 -45594-5 0  9999
2 49438  53.2165 181.8817 0002669  39.3791 320.7395 15.08841736 59300
STARLINK-3108           
1 49439U 21104AH  22333.31134576  .00000267  00000+0  34898-4 0  9990
2 49439  53.2152 179.8815 0003290  36.9146 323.2072 15.08836133 59394
STARLINK-3105           
1 49440U 21104AJ  22332.92862144 -.00000040  00000+0  15603-4 0  9990
2 49440  53.2158 181.6032 0003282  44.8916 315.2341 15.08840638 59315
STARLINK-3128           
1 49441U 21104AK  22332.97646257  .00000587  00000+0  55008-4 0  9999
2 49441  53.2149 181.3842 0003573  38.4316 321.6930 15.08837436 59337
STARLINK-3098           
1 49442U 21104AL  22333.05742136  .00000014  00000+0  18991-4 0  9998
2 49442  53.2164 181.0191 0002947  40.8758 319.2455 15.08838378 59342
STARLINK-3136           
1 49443U 21104AM  22333.17150777  .00000737  00000+0  64420-4 0  9996
2 49443  53.2156 180.5012 0002861  37.2708 322.8482 15.08835376 59356
STARLINK-3126           
1 49444U 21104AN  22332.85501925 -.00003064  00000+0 -17440-3 0  9993
2 49444  53.2161 181.9257 0002872  44.8585 315.2639 15.08851737 59302
STARLINK-3122           
1 49445U 21104AP  22332.86882256 -.00001277  00000+0 -62149-4 0  9995
2 49445  53.2159 191.8664 0002719  37.0500 323.0680 15.08835561 59178
STARLINK-3099           
1 49446U 21104AQ  22332.58638095  .00000146  00000+0  27304-4 0  9991
2 49446  53.2158 183.1320 0002040  49.2032 310.9137 15.08839719 59264
STARLINK-3115           
1 49447U 21104AR  22332.59650285 -.00000677  00000+0 -24408-4 0  9991
2 49447  53.2153 193.0817 0002754  39.1988 320.9203 15.08835332 58059
STARLINK-3097           
1 49448U 21104AS  22332.60754597 -.00003722  00000+0 -21576-3 0  9991
2 49448  53.2164 193.0341 0003188  32.3322 327.7865 15.08850491 58055
STARLINK-3137           
1 49449U 21104AT  22333.32146739 -.00000564  00000+0 -17305-4 0  9992
2 49449  53.2157 189.8329 0002735  37.2655 322.8526 15.08837005 59245
STARLINK-3127           
1 49450U 21104AU  22332.99762886 -.00001309  00000+0 -64128-4 0  9996
2 49450  53.2156 191.2729 0002944  37.3730 322.7467 15.08830368 59185
STARLINK-3125           
1 49451U 21104AV  22332.92034327 -.00000782  00000+0 -31008-4 0  9997
2 49451  53.2169 191.6390 0002991  36.2584 323.8611 15.08839066 59182
STARLINK-3150           
1 49452U 21104AW  22333.03905881 -.00000759  00000+0 -29542-4 0  9997
2 49452  53.2156 191.1020 0002617  41.5289 318.5901 15.08832161 59205
STARLINK-3129           
1 49453U 21104AX  22332.58178956 -.00000581  00000+0 -18370-4 0  9992
2 49453  53.2166 193.1564 0002922  38.5921 321.5280 15.08830245 58057
STARLINK-3160           
1 49454U 21104AY  22333.04913827  .00000094  00000+0  24022-4 0  9997
2 49454  53.2160 191.0543 0002043  45.8401 314.2758 15.08836117 59205
STARLINK-3145           
1 49455U 21104AZ  22333.03442316 -.00000871  00000+0 -36598-4 0  9993
2 49455  53.2181 191.1266 0003336  38.0942 322.0286 15.08841477 59198
STARLINK-3124           
1 49456U 21104BA  22333.04178917 -.00000846  00000+0 -35001-4 0  9998
2 49456  53.2161 191.0875 0002992  38.6174 321.5032 15.08833699 59192
STARLINK-3132           
1 49457U 21104BB  22333.03074546 -.00001065  00000+0 -48812-4 0  9999
2 49457  53.2156 191.1461 0002517  43.5618 316.5572 15.08827906 59197
